DOT-1                   
1 44399U 19038P   22095.91199620  .00009081  00000+0  49765-3 0  9996
2 44399  97.6337  64.2665 0024484  33.4675 326.8097 15.14172128151964
SOKRAT                  
1 44404U 19038U   22095.84310687  .00013713  00000+0  71807-3 0  9992
2 44404  97.6292  64.8239 0021530  31.6127 328.6393 15.15732083152014
LUCKY-7                 
1 44406U 19038W   22095.87258692  .00009065  00000+0  49164-3 0  9990
2 44406  97.6323  64.5513 0023980  25.9507 334.2921 15.14553643151978
D-STAR ONE (EXOCONNECT) 
1 44410U 19038AA  22095.85011702  .00020178  00000+0  10005-2 0  9991
2 44410  97.6247  65.4872 0020537  28.3088 331.9256 15.17581454152073
NARSSCUBE-2             
1 44415U 19022E   22095.75378792  .00009447  00000+0  29939-3 0  9996
2 44415  51.6400 109.3034 0010730 148.9961 211.1656 15.33355172148959
DUCHIFAT-3              
1 44854U 19089C   22096.18729219  .00005989  00000+0  47217-3 0  9994
2 44854  36.9632 168.5795 0008340 347.9610  12.0931 15.00483364127079
OPS-SAT                 
1 44878U 19092F   22095.48804086  .00009359  00000+0  45408-3 0  9997
2 44878  97.4799 280.1354 0012176 230.5559 129.4598 15.18644643127119
FLORIPASAT-1            
1 44885U 19093G   22096.14913120  .00003198  00000+0  40090-3 0  9997
2 44885  97.8992 177.4948 0015747  71.4393 288.8539 14.82820878124138
HUSKYSAT-1 (HO-107)     
1 45119U 19071J   22095.89329205  .00027232  00000+0  65573-3 0  9998
2 45119  51.6403  55.0377 0008110 267.9214  92.0842 15.41034298122163
G-SAT                   
1 45597U 98067RK  22095.91582498  .00549724  13886-3  12068-2 0  9993
2 45597  51.6274 282.0357 0008689 274.9679  85.0338 15.97474331110473
BY70-2                  
1 45857U 20042B   22096.18470790  .00010394  00000+0  14213-2 0  9991
2 45857  97.9574 173.7704 0009637 357.6507   2.4712 14.78699333 94775
SALSAT                  
1 46495U 20068K   22095.79301744  .00003767  00000+0  27562-3 0  9994
2 46495  97.7228  37.1203 0017049 159.4882 200.7032 15.04098054 83268
NETSAT-4                
1 46504U 20068U   22095.81819004  .00005063  00000+0  38106-3 0  9998
2 46504  97.7159  35.8024 0011162 200.4437 159.6342 15.02930263 83138
NETSAT-3                
1 46505U 20068V   22095.83164206  .00005524  00000+0  41566-3 0  9994
2 46505  97.7140  35.7463 0010483 214.1904 145.8647 15.02899697 83142
NETSAT-1                
1 46506U 20068W   22095.77912422  .00006077  00000+0  45760-3 0  9993
2 46506  97.7129  35.6368 0009027 227.5852 132.4610 15.02844417 83136
NETSAT-2                
1 46507U 20068X   22095.78716347  .00005430  00000+0  40992-3 0  9997
2 46507  97.7129  35.6410 0007764 237.3720 122.6765 15.02803147 83085
BY70-3                  
1 46839U 20079N   22096.26753438  .00027642  00000+0  72489-3 0  9998
2 46839  97.2051 169.4614 0005778 219.4217 228.4488 15.38616607 79139
SPOC                    
1 46921U 98067RR  22094.76641738  .00129896  00000+0  95347-3 0  9996
2 46921  51.6352 311.3169 0003085 197.6045 162.4847 15.72206028 80326
BOBCAT-1                
1 46922U 98067RS  22095.82056518  .01687625  22840-2  15123-2 0  9993
2 46922  51.6283 289.7380 0011032 265.9946  93.9808 16.12494325 80669
NEUTRON-1               
1 46923U 98067RT  22095.63143893  .00115526  00000+0  84736-3 0  9999
2 46923  51.6362 307.3534 0003421 202.5959 157.4889 15.72276728 80485
DESCENT                 
1 46927U 98067RX  22094.84893611  .00129047  00000+0  91806-3 0  9994
2 46927  51.6349 311.1226 0004133 202.3590 157.7229 15.72941340 80272
UVSQ-SAT                
1 47438U 21006AB  22096.16556552  .00007897  00000+0  42921-3 0  9990
2 47438  97.4450 156.6807 0013010 160.0560 200.1183 15.14687215 66336
SOMP2B                  
1 47445U 21006AJ  22095.15936812  .00008993  00000+0  49185-3 0  9994
2 47445  97.4412 155.4181 0012086 166.7347 193.4089 15.14431966 66173
WARP-01                 
1 47924U 98067SA  22095.84037281  .00313849  00000+0  13948-2 0  9991
2 47924  51.6296 310.1572 0006345 217.8515 142.2043 15.82899608 60438
RSP-01                  
1 47925U 98067SB  22095.88024770  .00144102  00000+0  10775-2 0  9994
2 47925  51.6376 315.0194 0003224 209.2150 150.8668 15.71716451 60356
TAUSAT-1                
1 47926U 98067SC  22095.05410722  .00285820  00000+0  13312-2 0  9993
2 47926  51.6299 313.1827 0005943 228.2390 131.8104 15.81972917 60299
TSURU                   
1 47927U 98067SD  22095.85123968  .00102926  00000+0  88140-3 0  9992
2 47927  51.6366 317.0708 0002383 200.2370 159.8532 15.68614975 60320
STARS-EC                
1 47928U 98067SE  22096.04156955  .00591497  15107-3  16656-2 0  9992
2 47928  51.6297 306.9940 0008758 238.2468 121.7686 15.92864259 60451
MAYA-2                  
1 47929U 98067SF  22095.84892226  .00102933  00000+0  88527-3 0  9990
2 47929  51.6366 317.0545 0002254 201.8181 158.2720 15.68509791 60281
HIROGARI (OPUSAT-II)    
1 47930U 98067SG  22096.00477034  .00769553  26653-3  18714-2 0  9990
2 47930  51.6257 305.2332 0009078 252.3494 107.6523 15.95607434 60499
GUARANISAT-1            
1 47931U 98067SH  22095.90242474  .00111251  00000+0  94788-3 0  9993
2 47931  51.6377 316.6780 0002330 203.2105 156.8787 15.68703594 60339
DIY-1 (ARDUIQUBE)       
1 47963U 21022AH  22095.69434976  .00019071  00000+0  11415-2 0  9993
2 47963  97.5375 358.0092 0018966  29.9509 330.2801 15.10914262 55950
